{
  "type": "FeatureCollection",
  "features": [
    {
      "type": "Feature",
      "properties": {
        "norad_id": 33412,
        "name": "COSMO-SKYMED 3",
        "group": "resource",
        "lat": 16.51885056496784,
        "lon": 22.40798662213508,
        "alt_km": 539.7505922777309,
        "timestamp": "2025-12-15T14:57:57.496843+00:00",
        "meta_object_name": "COSMO-SKYMED 3",
        "meta_object_id": "2008-054A",
        "meta_epoch": "2025-12-14T22:17:26.862432",
        "meta_mean_motion": 15.05383279,
        "meta_eccentricity": 0.00162122,
        "meta_inclination": 97.8479,
        "meta_ra_of_asc_node": 199.3572,
        "meta_arg_of_pericenter": 165.7819,
        "meta_mean_anomaly": 194.3867,
        "meta_ephemeris_type": 0,
        "meta_classification_type": "U",
        "meta_norad_cat_id": 33412,
        "meta_element_set_no": 999,
        "meta_rev_at_epoch": 92920,
        "meta_bstar": 0.00029790403,
        "meta_mean_motion_dot": 4.218e-05,
        "meta_mean_motion_ddot": 0,
        "tle_line1": "1 33412U 08054A   25348.92878313  .00004218  00000+0  29790-3 0  9997",
        "tle_line2": "2 33412  97.8479 199.3572 0016212 165.7819 194.3867 15.05383279929207"
      },
      "geometry": {
        "type": "Point",
        "coordinates": [
          22.40798662213508,
          16.51885056496784
        ]
      }
    },
    {
      "type": "Feature",
      "properties": {
        "norad_id": 33446,
        "name": "YAOGAN-4",
        "group": "resource",
        "lat": -82.03939337492524,
        "lon": 15.288557864537147,
        "alt_km": 621.4428259452288,
        "timestamp": "2025-12-15T14:57:57.496852+00:00",
        "meta_object_name": "YAOGAN-4",
        "meta_object_id": "2008-061A",
        "meta_epoch": "2025-12-14T19:56:16.699776",
        "meta_mean_motion": 14.82690709,
        "meta_eccentricity": 0.00134312,
        "meta_inclination": 97.9179,
        "meta_ra_of_asc_node": 278.9095,
        "meta_arg_of_pericenter": 315.9902,
        "meta_mean_anomaly": 44.0242,
        "meta_ephemeris_type": 0,
        "meta_classification_type": "U",
        "meta_norad_cat_id": 33446,
        "meta_element_set_no": 999,
        "meta_rev_at_epoch": 91834,
        "meta_bstar": 0.00021548269,
        "meta_mean_motion_dot": 1.687e-05,
        "meta_mean_motion_ddot": 0,
        "tle_line1": "1 33446U 08061A   25348.83074884  .00001687  00000+0  21548-3 0  9993",
        "tle_line2": "2 33446  97.9179 278.9095 0013431 315.9902  44.0242 14.82690709918342"
      },
      "geometry": {
        "type": "Point",
        "coordinates": [
          15.288557864537147,
          -82.03939337492524
        ]
      }
    },
    {
      "type": "Feature",
      "properties": {
        "norad_id": 33492,
        "name": "GOSAT (IBUKI)",
        "group": "resource",
        "lat": 15.159080504554053,
        "lon": -79.60835243105238,
        "alt_km": 669.4828783647799,
        "timestamp": "2025-12-15T14:57:57.496862+00:00",
        "meta_object_name": "GOSAT (IBUKI)",
        "meta_object_id": "2009-002A",
        "meta_epoch": "2025-12-14T21:51:18.293760",
        "meta_mean_motion": 14.67558988,
        "meta_eccentricity": 9.612e-05,
        "meta_inclination": 98.0771,
        "meta_ra_of_asc_node": 97.4838,
        "meta_arg_of_pericenter": 95.2176,
        "meta_mean_anomaly": 264.9138,
        "meta_ephemeris_type": 0,
        "meta_classification_type": "U",
        "meta_norad_cat_id": 33492,
        "meta_element_set_no": 999,
        "meta_rev_at_epoch": 90443,
        "meta_bstar": 0.00017175476,
        "meta_mean_motion_dot": 9.26e-06,
        "meta_mean_motion_ddot": 0,
        "tle_line1": "1 33492U 09002A   25348.91062840  .00000926  00000+0  17175-3 0  9994",
        "tle_line2": "2 33492  98.0771  97.4838 0000961  95.2176 264.9138 14.67558988904434"
      },
      "geometry": {
        "type": "Point",
        "coordinates": [
          -79.60835243105238,
          15.159080504554053
        ]
      }
    },
    {
      "type": "Feature",
      "properties": {
        "norad_id": 35681,
        "name": "DEIMOS-1",
        "group": "resource",
        "lat": -40.723818763721795,
        "lon": 156.793657261213,
        "alt_km": 652.6591645723556,
        "timestamp": "2025-12-15T14:57:57.496871+00:00",
        "meta_object_name": "DEIMOS-1",
        "meta_object_id": "2009-041A",
        "meta_epoch": "2025-12-14T21:14:33.398592",
        "meta_mean_motion": 14.74958653,
        "meta_eccentricity": 0.00027201,
        "meta_inclination": 97.7147,
        "meta_ra_of_asc_node": 149.3884,
        "meta_arg_of_pericenter": 76.4838,
        "meta_mean_anomaly": 283.6675,
        "meta_ephemeris_type": 0,
        "meta_classification_type": "U",
        "meta_norad_cat_id": 35681,
        "meta_element_set_no": 999,
        "meta_rev_at_epoch": 87971,
        "meta_bstar": 0.00019439256,
        "meta_mean_motion_dot": 1.259e-05,
        "meta_mean_motion_ddot": 0,
        "tle_line1": "1 35681U 09041A   25348.88510878  .00001259  00000+0  19439-3 0  9999",
        "tle_line2": "2 35681  97.7147 149.3884 0002720  76.4838 283.6675 14.74958653879715"
      },
      "geometry": {
        "type": "Point",
        "coordinates": [
          156.793657261213,
          -40.723818763721795
        ]
      }
    },
    {
      "type": "Feature",
      "properties": {
        "norad_id": 35682,
        "name": "DUBAISAT-1",
        "group": "resource",
        "lat": -68.74550668907686,
        "lon": -80.87507459652483,
        "alt_km": 649.7912088255689,
        "timestamp": "2025-12-15T14:57:57.496881+00:00",
        "meta_object_name": "DUBAISAT-1",
        "meta_object_id": "2009-041B",
        "meta_epoch": "2025-12-14T21:32:55.028832",
        "meta_mean_motion": 14.74611203,
        "meta_eccentricity": 0.00094381,
        "meta_inclination": 97.9785,
        "meta_ra_of_asc_node": 119.5456,
        "meta_arg_of_pericenter": 306.9924,
        "meta_mean_anomaly": 53.0421,
        "meta_ephemeris_type": 0,
        "meta_classification_type": "U",
        "meta_norad_cat_id": 35682,
        "meta_element_set_no": 999,
        "meta_rev_at_epoch": 87793,
        "meta_bstar": 0.00018701625,
        "meta_mean_motion_dot": 1.197e-05,
        "meta_mean_motion_ddot": 0,
        "tle_line1": "1 35682U 09041B   25348.89785913  .00001197  00000+0  18702-3 0  9998",
        "tle_line2": "2 35682  97.9785 119.5456 0009438 306.9924  53.0421 14.74611203877937"
      },
      "geometry": {
        "type": "Point",
        "coordinates": [
          -80.87507459652483,
          -68.74550668907686
        ]
      }
    },
    {
      "type": "Feature",
      "properties": {
        "norad_id": 35931,
        "name": "OCEANSAT-2",
        "group": "resource",
        "lat": 10.15621658874089,
        "lon": -11.55245723227639,
        "alt_km": 886.107777292751,
        "timestamp": "2025-12-15T14:57:57.496890+00:00",
        "meta_object_name": "OCEANSAT-2",
        "meta_object_id": "2009-051A",
        "meta_epoch": "2025-12-14T23:28:33.115584",
        "meta_mean_motion": 13.99624213,
        "meta_eccentricity": 0.00161579,
        "meta_inclination": 98.2221,
        "meta_ra_of_asc_node": 349.3518,
        "meta_arg_of_pericenter": 39.1844,
        "meta_mean_anomaly": 321.0489,
        "meta_ephemeris_type": 0,
        "meta_classification_type": "U",
        "meta_norad_cat_id": 35931,
        "meta_element_set_no": 999,
        "meta_rev_at_epoch": 85356,
        "meta_bstar": -5.9636733e-05,
        "meta_mean_motion_dot": -1.25e-06,
        "meta_mean_motion_ddot": 0,
        "tle_line1": "1 35931U 09051A   25348.97816106 -.00000125  00000+0 -59637-4 0  9999",
        "tle_line2": "2 35931  98.2221 349.3518 0016157  39.1844 321.0489 13.99624213853563"
      },
      "geometry": {
        "type": "Point",
        "coordinates": [
          -11.55245723227639,
          10.15621658874089
        ]
      }
    },
    {
      "type": "Feature",
      "properties": {
        "norad_id": 35946,
        "name": "WORLDVIEW-2 (WV-2)",
        "group": "resource",
        "lat": 12.879480266775634,
        "lon": -117.37715850301939,
        "alt_km": 768.0147323390529,
        "timestamp": "2025-12-15T14:57:57.496900+00:00",
        "meta_object_name": "WORLDVIEW-2 (WV-2)",
        "meta_object_id": "2009-055A",
        "meta_epoch": "2025-12-14T21:29:24.649152",
        "meta_mean_motion": 14.37724771,
        "meta_eccentricity": 0.00051211,
        "meta_inclination": 98.4787,
        "meta_ra_of_asc_node": 59.9501,
        "meta_arg_of_pericenter": 65.3427,
        "meta_mean_anomaly": 294.8293,
        "meta_ephemeris_type": 0,
        "meta_classification_type": "U",
        "meta_norad_cat_id": 35946,
        "meta_element_set_no": 999,
        "meta_rev_at_epoch": 84916,
        "meta_bstar": 6.8401134e-05,
        "meta_mean_motion_dot": 1.62e-06,
        "meta_mean_motion_ddot": 0,
        "tle_line1": "1 35946U 09055A   25348.89542418  .00000162  00000+0  68401-4 0  9990",
        "tle_line2": "2 35946  98.4787  59.9501 0005121  65.3427 294.8293 14.37724771849165"
      },
      "geometry": {
        "type": "Point",
        "coordinates": [
          -117.37715850301939,
          12.879480266775634
        ]
      }
    }
  ]
}